[
    {
        "Altitude(m)": 607895.8288154901,
        "Argument of Periapsis(deg)": 0.0,
        "Eccentricity": 0.0,
        "Inclination(deg)": 60.0,
        "Latitude(deg)": 40.998370553776795,
        "Longitude(deg)": 20.08856069514246,
        "Mean Anomaly(deg)": -229.09089999999998,
        "RAAN(deg)": 330.0,
        "Satellite Name": "Test1 1460",
        "Satellite Number": 1460,
        "Semi-Major Axis(m)": 6980739.136638005,
        "Time(s)": 0
    },
    {
        "Altitude(m)": 607795.1419443348,
        "Argument of Periapsis(deg)": 0.00010418945913296404,
        "Eccentricity": 0.0,
        "Inclination(deg)": 60.0,
        "Latitude(deg)": 40.5306956669817,
        "Longitude(deg)": 20.58515615074916,
        "Mean Anomaly(deg)": -228.47079385453813,
        "RAAN(deg)": 329.9995799508602,
        "Satellite Name": "Test1 1460",
        "Satellite Number": 1460,
        "Semi-Major Axis(m)": 6980739.136638005,
        "Time(s)": 10
    }
]